{
  "norad_id": 57955,
  "name": "STARLINK-30702",
  "history": [
    {
      "epoch": "2026-03-28T20:04:17.314464Z",
      "apogee_km": 476.08225003260577,
      "perigee_km": 474.3498594474295,
      "latitude_deg": 1.778149683726894e-05,
      "longitude_deg": 157.95192750783963,
      "height_km": 476.2048942087222,
      "semi_major_axis_km": 6853.353054740018,
      "eccentricity": 0.00012639,
      "inclination_deg": 53.16,
      "raan_deg": 285.2751,
      "arg_perigee_deg": 96.0139,
      "mean_anomaly_deg": 264.1006,
      "mean_motion_rev_day": 15.3019967
    },
    {
      "epoch": "2026-03-30T12:49:39.648288Z",
      "apogee_km": 476.0551197993518,
      "perigee_km": 474.32479180955033,
      "latitude_deg": 7.837900107815176e-06,
      "longitude_deg": -102.9544342545018,
      "height_km": 476.0186039875806,
      "semi_major_axis_km": 6853.326955804451,
      "eccentricity": 0.00012624,
      "inclination_deg": 53.1603,
      "raan_deg": 277.3856,
      "arg_perigee_deg": 85.3938,
      "mean_anomaly_deg": 274.7207,
      "mean_motion_rev_day": 15.30208411
    },
    {
      "epoch": "2026-03-30T19:05:51.805536Z",
      "apogee_km": 476.0433681743707,
      "perigee_km": 474.36991872351336,
      "latitude_deg": -8.34655144918935e-06,
      "longitude_deg": 161.52479724545464,
      "height_km": 476.03359869886833,
      "semi_major_axis_km": 6853.343643448941,
      "eccentricity": 0.00012209,
      "inclination_deg": 53.1603,
      "raan_deg": 276.173,
      "arg_perigee_deg": 85.1166,
      "mean_anomaly_deg": 274.9974,
      "mean_motion_rev_day": 15.30202822
    },
    {
      "epoch": "2026-03-31T18:36:42.606432Z",
      "apogee_km": 475.5915729305261,
      "perigee_km": 475.0268489627433,
      "latitude_deg": 8.199538027456575e-06,
      "longitude_deg": 163.30135025819675,
      "height_km": 476.1979349165856,
      "semi_major_axis_km": 6853.446210946634,
      "eccentricity": 4.12e-05,
      "inclination_deg": 53.1612,
      "raan_deg": 271.6269,
      "arg_perigee_deg": 87.85,
      "mean_anomaly_deg": 272.2548,
      "mean_motion_rev_day": 15.30168471
    },
    {
      "epoch": "2026-04-01T18:07:29.690400Z",
      "apogee_km": 477.3235330079515,
      "perigee_km": 473.1649012853868,
      "latitude_deg": 3.560483544092792e-05,
      "longitude_deg": 165.08474088536607,
      "height_km": 476.55371359722693,
      "semi_major_axis_km": 6853.381217146669,
      "eccentricity": 0.0003034,
      "inclination_deg": 53.1608,
      "raan_deg": 267.0721,
      "arg_perigee_deg": 101.4814,
      "mean_anomaly_deg": 258.6528,
      "mean_motion_rev_day": 15.30190238
    }
  ]
}